CSS (TIANHE)            
1 48274U 21035A   23331.79936881  .00044386  00000+0  47906-3 0  9992
2 48274  41.4709 239.6409 0007225 235.1140 124.9020 15.62814960147414
